C/2016 Q2 (PANSTARRS),h,05/12.4122/2021,109.3674,322.3258,84.5569,1.003305,7.081348,2000,6.0,4.0
# From MPEC 2022-K19
P/2016 R4 (Gibbs),e,10.8742,168.2850,174.1305,5.333991,0.0800066,0.47573286,213.3580,11/12.0/2023,2000,g 12.5,4.0
# From MPC105543
P/2016 S1 (PANSTARRS),e,94.7396,227.6775,273.2213,8.272713,0.0414221,0.71094655,100.6561,11/12.0/2023,2000,g 12.0,4.0
# From MPC106345
P/2016 WM48 (Lemmon),e,117.6252,59.9498,36.1682,8.172162,0.0421889,0.78358037,103.4315,11/12.0/2023,2000,g 15.0,4.0
# From MPEC 2021-P47
C/2016 X1 (Lemmon),e,26.4651,256.3151,224.5085,1610,0.0000153,0.99530647,0.0000,04/28.5093/2019,2000,g  6.0,4.0
# From MPEC 2022-OB6
C/2017 B3 (LINEAR),e,54.1702,2.1853,284.8342,12803,0.0000007,0.99969282,0.0000,01/31.5554/2019,2000,g  6.0,4.0
# From MPC103847
P/2017 B4 (PANSTARRS),e,20.0584,121.4578,11.0197,4.410520,0.1064068,0.36495152,359.9130,01/05.0/2017,2000,g 14.5,4.0
# From MPEC 2022-OB6
P/2017 D1 (Fuls),e,20.7717,82.1980,7.9709,4.826134,0.0929619,0.43744118,250.6791,11/12.0/2023,2000,g 14.0,4.0
# From MPEC 2022-OB6
P/2017 D4 (PANSTARRS),e,10.5540,264.9002,212.1376,7.544811,0.0475589,0.62968187,124.7132,11/12.0/2023,2000,g 13.0,4.0
# From MPC104794
P/2017 G1 (PANSTARRS),e,4.7882,249.7054,224.2953,7.271954,0.0502606,0.65444584,138.3697,11/12.0/2023,2000,g 13.5,4.0
# From MPC108595
P/2017 G2 (PANSTARRS),e,47.9665,79.8801,105.3177,8.045012,0.0431931,0.64780247,101.3791,11/12.0/2023,2000,g 13.0,4.0
# From MPEC 2023-V39
C/2017 K2 (PANSTARRS),h,12/19.6495/2022,87.5668,88.2333,236.1945,1.000387,1.797174,2000,1.5,4.0
# From MPEC 2021-N06
P/2017 K3 (Gasparovic),e,4.2737,354.3064,253.3513,5.585096,0.0746721,0.57887934,176.3410,11/12.0/2023,2000,g 14.5,4.0
# From MPEC 2021-P47
C/2017 K5 (PANSTARRS),h,03/27.0861/2020,82.2644,102.4245,172.0482,1.004185,7.685629,2000,5.0,4.0
# From MPEC 2022-OB6
C/2017 M4 (ATLAS),h,01/17.9433/2019,105.6277,66.0083,167.5537,1.000935,3.247069,2000,6.0,4.0
# From MPC114599
P/2017 P1 (PANSTARRS),e,7.6878,221.4622,122.7690,7.918881,0.0442291,0.31029688,87.0400,11/12.0/2023,2000,g 10.0,4.0
# From MPEC 2022-OB6
P/2017 S8 (PANSTARRS),e,29.8466,191.5354,254.8602,2.778659,0.2127900,0.39094699,89.9495,11/12.0/2023,2000,g 16.0,4.0
# From MPEC 2022-YN2
C/2017 T2 (PANSTARRS),e,57.2862,64.4414,92.8595,1486,0.0000172,0.99891617,0.0000,05/05.0260/2020,2000,g  5.0,4.0
# From MPC115882
P/2017 TW13 (Lemmon),e,44.8642,322.2355,119.9066,7.135030,0.0517143,0.71060504,101.7941,11/12.0/2023,2000,g 15.0,2.0
# From MPEC 2022-K19
P/2017 U3 (PANSTARRS),e,15.9177,165.0937,296.2109,4.922570,0.0902436,0.10017055,151.1101,11/12.0/2023,2000,g 11.0,4.0
# From MPEC 2023-A50
C/2017 U7 (PANSTARRS),h,09/15.8454/2019,142.6266,276.2900,326.4614,1.002366,6.428140,2000,8.3,2.0
# From MPC114601
P/2017 W3 (Gibbs),e,18.1721,210.1672,327.7812,7.825958,0.0450192,0.50637727,93.8621,11/12.0/2023,2000,g 10.5,4.0
# From MPEC 2022-TD3
C/2017 Y2 (PANSTARRS),h,11/04.5402/2020,28.4278,66.0361,147.8852,1.000056,4.633088,2000,15.0,4.0
# From MPC111770
P/2017 Y3 (Leonard),e,27.5823,153.8979,67.5142,9.810361,0.0320757,0.86931374,67.4756,11/12.0/2023,2000,g 16.5,4.0
# From MPEC 2021-P47
C/2018 A3 (ATLAS),e,139.5502,194.3027,86.3777,349.8156,0.0001506,0.99061617,0.0000,01/09.9578/2019,2000,g  8.5,4.0
# From MPC109147
P/2018 A5 (PANSTARRS),e,23.6129,87.7842,359.4947,5.626430,0.0738507,0.52400323,165.2923,11/12.0/2023,2000,g 15.0,4.0
# From MPEC 2023-UR6
C/2018 A6 (Gibbs),e,77.0852,340.3979,264.3278,15.02263,0.0169272,0.79905580,26.8324,11/12.0/2023,2000,g  9.0,4.0
# From MPC114601
P/2018 C1 (Lemmon-Read),e,5.1082,270.2997,235.7030,5.651424,0.0733613,0.53216530,153.1682,11/12.0/2023,2000,g 13.5,4.0
# From MPEC 2022-M88
C/2018 DO4 (Lemmon),e,60.4618,251.3778,176.3274,25.46868,0.0076682,0.90530033,11.8650,11/12.0/2023,2000,g 11.0,4.0
# From MPEC 2021-R75
C/2018 F1 (Grauer),e,46.0973,177.2828,71.5503,229.6979,0.0002831,0.98695213,0.0000,12/11.0638/2018,2000,g 11.5,4.0
# From MPEC 2023-A50
C/2018 F4 (PANSTARRS),e,78.0843,26.5157,263.2108,3105,0.0000057,0.99889030,0.0000,12/02.3168/2019,2000,g 11.0,6.0
# From MPEC 2021-Y10
C/2018 F4-A,e,78.0845,26.5158,263.2076,2963,0.0000061,0.99883734,0.0000,12/02.3049/2019,2000,g 11.0,6.0
# From MPEC 2023-D41
C/2018 F4-B,e,78.0854,26.5153,263.1934,3208,0.0000054,0.99892613,0.0000,12/02.2417/2019,2000,g 11.0,6.0
# From MPC114602
P/2018 H2 (PANSTARRS),e,7.4160,68.0061,119.6060,4.391142,0.1071119,0.54141565,228.9802,11/12.0/2023,2000,g 16.6,2.0
# From MPEC 2021-R75
C/2018 KJ3 (Lemmon),e,136.6482,91.6760,217.6273,873.5784,0.0000382,0.99585242,0.0000,09/09.8702/2019,2000,g 12.2,2.0
# From MPC114602
P/2018 L1 (PANSTARRS),e,10.5795,268.5984,18.0187,3.655148,0.1410414,0.48140661,257.7577,11/12.0/2023,2000,g 15.0,4.0
# From MPEC 2021-P47
C/2018 L2 (ATLAS),e,67.2134,242.9876,56.3451,250.4564,0.0002487,0.99313907,0.0000,12/01.4656/2018,2000,g 10.0,4.0
# From MPC114603
P/2018 L4 (PANSTARRS),e,26.6062,145.2002,140.5893,4.946800,0.0895813,0.65854382,173.0264,11/12.0/2023,2000,g 17.5,4.0
# From MPC119996
P/2018 L5 (Leonard),e,2.2088,219.0578,93.9370,3.629133,0.1425607,0.36395548,287.4518,11/12.0/2023,2000,g 14.5,4.0
# From MPEC 2022-YN2
C/2018 N2 (ASASSN),h,11/11.6778/2019,77.5539,24.4905,25.2488,1.001420,3.130311,2000,6.0,4.0
# From MPEC 2023-J29
P/2018 P3 (PANSTARRS),e,8.9149,59.1603,306.0127,3.003832,0.1893174,0.41717323,351.5293,11/12.0/2023,2000,g 14.5,4.0
# From MPC114603
P/2018 P4 (PANSTARRS),e,23.1033,353.1376,8.4491,6.689388,0.0569672,0.45020331,104.1852,11/12.0/2023,2000,g 12.0,4.0
# From MPEC 2021-P47
C/2018 P5 (PANSTARRS),e,7.2458,216.2500,131.9958,12.85279,0.0213899,0.64264638,36.7491,11/12.0/2023,2000,g 11.0,4.0
# From MPC118841
C/2018 R3 (Lemmon),e,69.7206,324.5532,112.7068,1607,0.0000153,0.99920184,0.0000,06/07.9719/2019,2000,g  9.5,4.0
# From MPC114603
C/2018 R5 (Lemmon),e,3.7484,171.1744,178.2213,22.92428,0.0089797,0.84127839,15.8673,11/12.0/2023,2000,g 11.5,4.0
# From MPEC 2022-QC6
C/2018 S2 (TESS),e,64.1273,85.1236,290.8362,14.36813,0.0180969,0.61872946,33.1389,11/12.0/2023,2000,g  7.5,4.0
# From MPEC 2023-N01
C/2018 U1 (Lemmon),h,11/02.9711/2021,108.3234,75.5049,180.4548,1.001299,4.991776,2000,5.0,4.0
# From MPC114604
C/2018 V1 (Machholz-Fujikawa-Iwamoto),h,12/02.9852/2018,144.1343,129.2489,89.2945,1.000393,0.391670,2000,12.0,4.0
# From MPC115884
C/2018 V2 (ATLAS),e,159.1671,357.1056,319.1124,25.12919,0.0078241,0.90092803,14.1827,11/12.0/2023,2000,g 15.0,4.0
# From MPEC 2023-CD7
P/2018 VN2 (Leonard),e,18.2604,226.4411,138.9139,4.061749,0.1204022,0.47859540,238.7167,11/12.0/2023,2000,g 15.0,4.0
# From MPEC 2022-VC5
A/2018 V3,e,164.9478,308.7423,3.6172,128.4908,0.0006767,0.98958612,0.0000,09/09.7138/2019,2000,g 15.7,2.0
# From MPEC 2022-M21
C/2018 V4 (Africano),e,69.0285,78.2699,359.9716,206.5412,0.0003320,0.98452991,0.0000,03/01.9941/2019,2000,g 12.5,4.0
# From MPEC 2021-P47
P/2018 V5 (Trujillo-Sheppard),e,10.5878,171.3270,260.6808,8.967022,0.0367055,0.47587335,68.4267,11/12.0/2023,2000,g 12.5,4.0
# From MPEC 2021-P47
C/2018 W1 (Catalina),e,83.4196,233.6547,251.2129,21.70129,0.0097493,0.93746688,16.0342,11/12.0/2023,2000,g 15.5,2.0
# From MPEC 2021-P47
C/2018 W2 (Africano),h,09/05.3111/2019,116.6118,181.8470,158.1384,1.000739,1.463809,2000,9.5,4.0
# From MPEC 2023-M14
A/2018 W3,e,104.8328,251.6831,313.9517,716.6846,0.0000514,0.99401510,0.0000,04/13.0853/2021,2000,g 10.7,2.0
# From MPC119996
C/2018 X2 (Fitzsimmons),e,23.0799,340.7652,161.9363,138.9975,0.0006014,0.98477123,0.0000,07/08.5739/2019,2000,g 12.0,4.0
# From MPC114604
C/2018 X3 (PANSTARRS),e,43.4114,78.8144,359.7643,12.38497,0.0226132,0.78280465,40.1655,11/12.0/2023,2000,g 14.5,4.0
# From MPEC 2023-HD1
C/2018 Y1 (Iwamoto),e,160.4294,147.4432,357.8787,127.9695,0.0006808,0.98995629,0.0000,02/05.1153/2019,2000,g  9.0,4.0
# From MPC114605
P/2018 Y2 (Africano),e,11.6875,297.1707,162.2642,7.453197,0.0484384,0.47963690,85.9485,11/12.0/2023,2000,g 11.5,4.0
# From MPC114605
P/2019 A1 (PANSTARRS),e,13.7561,312.2477,150.7139,5.114747,0.0852055,0.56963662,158.2293,11/12.0/2023,2000,g 16.0,4.0
# From MPEC 2021-P47
P/2019 A2 (ATLAS),e,14.8636,139.4134,323.8626,5.712154,0.0721945,0.38263831,131.1460,11/12.0/2023,2000,g 10.5,4.0
# From MPEC 2022-M21
P/2019 A3 (PANSTARRS),e,15.3747,31.3560,325.6449,3.143644,0.1768292,0.26607432,340.2570,11/12.0/2023,2000,g 16.0,4.0
# From MPEC 2022-L66
P/2019 A4 (PANSTARRS),e,13.3047,119.3680,342.9929,2.614013,0.2332075,0.08725692,59.0759,11/12.0/2023,2000,g 15.0,4.0
# From MPEC 2021-P47
C/2019 A5 (PANSTARRS),e,67.5490,146.5825,355.7746,21.47613,0.0099031,0.70609390,16.0392,11/12.0/2023,2000,g  9.5,4.0
# From MPC114605
P/2019 A6 (Lemmon-PANSTARRS),e,33.2703,280.1996,156.1874,5.356945,0.0794929,0.64025667,150.9536,11/12.0/2023,2000,g 16.0,4.0
# From MPC115884
P/2019 A8 (PANSTARRS),e,2.2099,114.6190,64.4455,4.321449,0.1097135,0.23026990,217.7074,11/12.0/2023,2000,g 16.0,4.0
# From MPC118842
C/2019 A9 (PANSTARRS),e,84.3123,278.4311,237.9102,39.14524,0.0040243,0.96346560,6.3179,11/12.0/2023,2000,g 15.0,4.0
# From MPEC 2022-L66
C/2019 B1 (Africano),e,23.4029,290.3021,174.7986,140.0344,0.0005948,0.98863418,0.0000,03/19.7871/2019,2000,g 16.0,4.0
# From MPC115885
P/2019 B2 (Groeller),e,16.9866,175.7368,0.8803,3.919512,0.1270153,0.35881854,207.4409,11/12.0/2023,2000,g 14.5,4.0
# From MPEC 2023-UR6
C/2019 B3 (PANSTARRS),e,66.5461,358.4272,263.9714,8533,0.0000013,0.99920005,0.0000,01/20.1284/2021,2000,g  5.5,4.0
# From MPEC 2021-P47
C/2019 C1 (ATLAS),e,36.0523,212.3931,319.0392,643.4025,0.0000604,0.98978363,0.0000,05/04.0838/2020,2000,g 10.0,4.0
# From MPEC 2022-O08
C/2019 D1 (Flewelling),e,33.9966,231.6478,70.7202,141.1887,0.0005875,0.98874992,0.0000,05/10.6381/2019,2000,g 13.0,4.0
# From MPEC 2023-V39
C/2019 E3 (ATLAS),e,84.2985,347.2347,280.6981,8421,0.0000013,0.99877525,0.0000,11/15.2477/2023,2000,g  2.5,4.0
# From MPEC 2023-UR6
C/2019 F1 (ATLAS-Africano),h,06/22.5206/2021,54.2357,38.6637,251.3391,1.002031,3.606363,2000,5.5,4.0
# From MPEC 2021-P47
